CCSDS_OMM_VERS = 2.0
CREATION_DATE  = 
ORIGINATOR     = 

OBJECT_NAME    = UNKNOWN
OBJECT_ID      = 
CENTER_NAME    = EARTH
REF_FRAME      = TEME
TIME_SYSTEM    = UTC
MEAN_ELEMENT_THEORY = SGP/SGP4

EPOCH          = 2025-11-25T04:12:29.328480
MEAN_MOTION    = 13.59947022
ECCENTRICITY   = .0002715
INCLINATION    = 100.1145
RA_OF_ASC_NODE = 48.1315
ARG_OF_PERICENTER = 181.0484
MEAN_ANOMALY   = 179.0649

EPHEMERIS_TYPE = 0
CLASSIFICATION_TYPE = U
NORAD_CAT_ID   = 82965
ELEMENT_SET_NO = 999
REV_AT_EPOCH   = 52206
BSTAR          = .17255E-2
MEAN_MOTION_DOT = .1239E-4
MEAN_MOTION_DDOT = 0

CCSDS_OMM_VERS = 2.0
CREATION_DATE  = 
ORIGINATOR     = 

OBJECT_NAME    = UNKNOWN
OBJECT_ID      = 
CENTER_NAME    = EARTH
REF_FRAME      = TEME
TIME_SYSTEM    = UTC
MEAN_ELEMENT_THEORY = SGP/SGP4

EPOCH          = 2025-11-26T04:30:34.140096
MEAN_MOTION    = 0.99117682
ECCENTRICITY   = .0124437
INCLINATION    = 6.2263
RA_OF_ASC_NODE = 290.7694
ARG_OF_PERICENTER = 251.0409
MEAN_ANOMALY   = 123.0533

EPHEMERIS_TYPE = 0
CLASSIFICATION_TYPE = U
NORAD_CAT_ID   = 83903
ELEMENT_SET_NO = 999
REV_AT_EPOCH   = 4350
BSTAR          = 0
MEAN_MOTION_DOT = -.17E-5
MEAN_MOTION_DDOT = 0

CCSDS_OMM_VERS = 2.0
CREATION_DATE  = 
ORIGINATOR     = 

OBJECT_NAME    = UNKNOWN
OBJECT_ID      = 
CENTER_NAME    = EARTH
REF_FRAME      = TEME
TIME_SYSTEM    = UTC
MEAN_ELEMENT_THEORY = SGP/SGP4

EPOCH          = 2025-11-25T23:49:48.543744
MEAN_MOTION    = 1.02663857
ECCENTRICITY   = .0233898
INCLINATION    = 5.8236
RA_OF_ASC_NODE = 297.6133
ARG_OF_PERICENTER = 272.3949
MEAN_ANOMALY   = 119.6860

EPHEMERIS_TYPE = 0
CLASSIFICATION_TYPE = U
NORAD_CAT_ID   = 83934
ELEMENT_SET_NO = 999
REV_AT_EPOCH   = 4511
BSTAR          = 0
MEAN_MOTION_DOT = -.241E-5
MEAN_MOTION_DDOT = 0

CCSDS_OMM_VERS = 2.0
CREATION_DATE  = 
ORIGINATOR     = 

OBJECT_NAME    = UNKNOWN
OBJECT_ID      = 
CENTER_NAME    = EARTH
REF_FRAME      = TEME
TIME_SYSTEM    = UTC
MEAN_ELEMENT_THEORY = SGP/SGP4

EPOCH          = 2025-11-25T00:02:57.734304
MEAN_MOTION    = 5.31756584
ECCENTRICITY   = .5070606
INCLINATION    = 18.2565
RA_OF_ASC_NODE = 239.3823
ARG_OF_PERICENTER = 107.3315
MEAN_ANOMALY   = 312.4531

EPHEMERIS_TYPE = 0
CLASSIFICATION_TYPE = U
NORAD_CAT_ID   = 83970
ELEMENT_SET_NO = 999
REV_AT_EPOCH   = 19526
BSTAR          = .64304E-2
MEAN_MOTION_DOT = .5788E-4
MEAN_MOTION_DDOT = 0

CCSDS_OMM_VERS = 2.0
CREATION_DATE  = 
ORIGINATOR     = 

OBJECT_NAME    = UNKNOWN
OBJECT_ID      = 
CENTER_NAME    = EARTH
REF_FRAME      = TEME
TIME_SYSTEM    = UTC
MEAN_ELEMENT_THEORY = SGP/SGP4

EPOCH          = 2025-11-20T10:50:40.316064
MEAN_MOTION    = 2.16233459
ECCENTRICITY   = .6142325
INCLINATION    = 22.4931
RA_OF_ASC_NODE = 182.0614
ARG_OF_PERICENTER = 52.9351
MEAN_ANOMALY   = 348.9531

EPHEMERIS_TYPE = 0
CLASSIFICATION_TYPE = U
NORAD_CAT_ID   = 84006
ELEMENT_SET_NO = 999
REV_AT_EPOCH   = 8374
BSTAR          = 0
MEAN_MOTION_DOT = -.31E-6
MEAN_MOTION_DDOT = 0

CCSDS_OMM_VERS = 2.0
CREATION_DATE  = 
ORIGINATOR     = 

OBJECT_NAME    = UNKNOWN
OBJECT_ID      = 
CENTER_NAME    = EARTH
REF_FRAME      = TEME
TIME_SYSTEM    = UTC
MEAN_ELEMENT_THEORY = SGP/SGP4

EPOCH          = 2025-11-26T02:23:01.200480
MEAN_MOTION    = 7.40216967
ECCENTRICITY   = .3848803
INCLINATION    = 65.1703
RA_OF_ASC_NODE = 272.0399
ARG_OF_PERICENTER = 20.4764
MEAN_ANOMALY   = 351.5422

EPHEMERIS_TYPE = 0
CLASSIFICATION_TYPE = U
NORAD_CAT_ID   = 84188
ELEMENT_SET_NO = 999
REV_AT_EPOCH   = 4002
BSTAR          = .28725E+0
MEAN_MOTION_DOT = .438412E-2
MEAN_MOTION_DDOT = 0

CCSDS_OMM_VERS = 2.0
CREATION_DATE  = 
ORIGINATOR     = 

OBJECT_NAME    = UNKNOWN
OBJECT_ID      = 
CENTER_NAME    = EARTH
REF_FRAME      = TEME
TIME_SYSTEM    = UTC
MEAN_ELEMENT_THEORY = SGP/SGP4

EPOCH          = 2025-11-26T02:53:12.026976
MEAN_MOTION    = 3.16851784
ECCENTRICITY   = .65645
INCLINATION    = 20.3535
RA_OF_ASC_NODE = 283.7833
ARG_OF_PERICENTER = 47.1868
MEAN_ANOMALY   = 351.8915

EPHEMERIS_TYPE = 0
CLASSIFICATION_TYPE = U
NORAD_CAT_ID   = 84232
ELEMENT_SET_NO = 999
REV_AT_EPOCH   = 10416
BSTAR          = .58157E-2
MEAN_MOTION_DOT = .7043E-4
MEAN_MOTION_DDOT = 0

CCSDS_OMM_VERS = 2.0
CREATION_DATE  = 
ORIGINATOR     = 

OBJECT_NAME    = UNKNOWN
OBJECT_ID      = 
CENTER_NAME    = EARTH
REF_FRAME      = TEME
TIME_SYSTEM    = UTC
MEAN_ELEMENT_THEORY = SGP/SGP4

EPOCH          = 2025-11-25T11:17:06.269280
MEAN_MOTION    = 2.62504091
ECCENTRICITY   = .6895299
INCLINATION    = 9.4505
RA_OF_ASC_NODE = 342.7211
ARG_OF_PERICENTER = 79.0382
MEAN_ANOMALY   = 345.9668

EPHEMERIS_TYPE = 0
CLASSIFICATION_TYPE = U
NORAD_CAT_ID   = 84236
ELEMENT_SET_NO = 999
REV_AT_EPOCH   = 11352
BSTAR          = .21961E-2
MEAN_MOTION_DOT = .242E-5
MEAN_MOTION_DDOT = 0

CCSDS_OMM_VERS = 2.0
CREATION_DATE  = 
ORIGINATOR     = 

OBJECT_NAME    = UNKNOWN
OBJECT_ID      = 
CENTER_NAME    = EARTH
REF_FRAME      = TEME
TIME_SYSTEM    = UTC
MEAN_ELEMENT_THEORY = SGP/SGP4

EPOCH          = 2025-11-17T07:19:57.658080
MEAN_MOTION    = 6.21299598
ECCENTRICITY   = .4565327
INCLINATION    = 23.8125
RA_OF_ASC_NODE = 195.5464
ARG_OF_PERICENTER = 178.7300
MEAN_ANOMALY   = 183.0924

EPHEMERIS_TYPE = 0
CLASSIFICATION_TYPE = U
NORAD_CAT_ID   = 84292
ELEMENT_SET_NO = 999
REV_AT_EPOCH   = 22648
BSTAR          = .29035E-2
MEAN_MOTION_DOT = .5153E-4
MEAN_MOTION_DDOT = 0

CCSDS_OMM_VERS = 2.0
CREATION_DATE  = 
ORIGINATOR     = 

OBJECT_NAME    = UNKNOWN
OBJECT_ID      = 
CENTER_NAME    = EARTH
REF_FRAME      = TEME
TIME_SYSTEM    = UTC
MEAN_ELEMENT_THEORY = SGP/SGP4

EPOCH          = 2025-11-15T15:54:53.065152
MEAN_MOTION    = 12.67280566
ECCENTRICITY   = .0042237
INCLINATION    = 101.7190
RA_OF_ASC_NODE = 103.4592
ARG_OF_PERICENTER = 96.4823
MEAN_ANOMALY   = 287.3910

EPHEMERIS_TYPE = 0
CLASSIFICATION_TYPE = U
NORAD_CAT_ID   = 84406
ELEMENT_SET_NO = 999
REV_AT_EPOCH   = 4586
BSTAR          = .54538E-2
MEAN_MOTION_DOT = .1001E-4
MEAN_MOTION_DDOT = 0

CCSDS_OMM_VERS = 2.0
CREATION_DATE  = 
ORIGINATOR     = 

OBJECT_NAME    = UNKNOWN
OBJECT_ID      = 
CENTER_NAME    = EARTH
REF_FRAME      = TEME
TIME_SYSTEM    = UTC
MEAN_ELEMENT_THEORY = SGP/SGP4

EPOCH          = 2025-11-11T08:26:38.103360
MEAN_MOTION    = 2.05755909
ECCENTRICITY   = .7202083
INCLINATION    = 19.5259
RA_OF_ASC_NODE = 331.7257
ARG_OF_PERICENTER = 45.0125
MEAN_ANOMALY   = 354.6079

EPHEMERIS_TYPE = 0
CLASSIFICATION_TYPE = U
NORAD_CAT_ID   = 84407
ELEMENT_SET_NO = 999
REV_AT_EPOCH   = 7522
BSTAR          = .24596E-1
MEAN_MOTION_DOT = -.16E-5
MEAN_MOTION_DDOT = 0

CCSDS_OMM_VERS = 2.0
CREATION_DATE  = 
ORIGINATOR     = 

OBJECT_NAME    = UNKNOWN
OBJECT_ID      = 
CENTER_NAME    = EARTH
REF_FRAME      = TEME
TIME_SYSTEM    = UTC
MEAN_ELEMENT_THEORY = SGP/SGP4

EPOCH          = 2025-11-13T06:57:43.604928
MEAN_MOTION    = 2.19885596
ECCENTRICITY   = .7100831
INCLINATION    = 18.1423
RA_OF_ASC_NODE = 168.0879
ARG_OF_PERICENTER = 4.7522
MEAN_ANOMALY   = 359.5966

EPHEMERIS_TYPE = 0
CLASSIFICATION_TYPE = U
NORAD_CAT_ID   = 84575
ELEMENT_SET_NO = 999
REV_AT_EPOCH   = 6481
BSTAR          = .5556E-2
MEAN_MOTION_DOT = .3E-7
MEAN_MOTION_DDOT = 0

