UNKNOWN                 
1 82965U          25329.17533945  .00001239  00000+0  17255-2 0  9994
2 82965 100.1145  48.1315 0002715 181.0484 179.0649 13.59947022522060
UNKNOWN                 
1 83903U          25330.18789514 -.00000170  00000+0  00000+0 0  9996
2 83903   6.2263 290.7694 0124437 251.0409 123.0533  0.99117682 43505
UNKNOWN                 
1 83934U          25329.99292296 -.00000241  00000+0  00000+0 0  9992
2 83934   5.8236 297.6133 0233898 272.3949 119.6860  1.02663857 45113
UNKNOWN                 
1 83970U          25329.00205711  .00005788  00000+0  64304-2 0  9990
2 83970  18.2565 239.3823 5070606 107.3315 312.4531  5.31756584195266
UNKNOWN                 
1 84006U          25324.45185551 -.00000031  00000+0  00000+0 0  9991
2 84006  22.4931 182.0614 6142325  52.9351 348.9531  2.16233459 83741
UNKNOWN                 
1 84188U          25330.09931945  .00438412  00000+0  28725+0 0  9996
2 84188  65.1703 272.0399 3848803  20.4764 351.5422  7.40216967 40022
UNKNOWN                 
1 84232U          25330.12027809  .00007043  00000+0  58157-2 0  9992
2 84232  20.3535 283.7833 6564500  47.1868 351.8915  3.16851784104160
UNKNOWN                 
1 84236U          25329.47021145  .00000242  00000+0  21961-2 0  9996
2 84236   9.4505 342.7211 6895299  79.0382 345.9668  2.62504091113527
UNKNOWN                 
1 84292U          25321.30552845  .00005153  00000+0  29035-2 0  9994
2 84292  23.8125 195.5464 4565327 178.7300 183.0924  6.21299598226480
UNKNOWN                 
1 84406U          25319.66311418  .00001001  00000+0  54538-2 0  9990
2 84406 101.7190 103.4592 0042237  96.4823 287.3910 12.67280566 45863
UNKNOWN                 
1 84407U          25315.35182990 -.00000160  00000+0  24596-1 0  9990
2 84407  19.5259 331.7257 7202083  45.0125 354.6079  2.05755909 75225
UNKNOWN                 
1 84575U          25317.29008802  .00000003  00000+0  55560-2 0  9991
2 84575  18.1423 168.0879 7100831   4.7522 359.5966  2.19885596 64814
